     2              NAVIGATION DATA                         RINEX VERSION / TYPE
CCRINEXN V1.6.0 UX  CDDIS               01-APR-13 15:33     PGM / RUN BY / DATE 
IGS BROADCAST EPHEMERIS FILE                                COMMENT             
    0.1676D-07  0.7451D-08 -0.1192D-06 -0.5960D-07          ION ALPHA           
    0.1106D+06  0.1638D+05 -0.2621D+06 -0.6554D+05          ION BETA            
    0.372529029846D-08 0.976996261670D-14   233472     1734 DELTA-UTC: A0,A1,T,W
    16                                                      LEAP SECONDS        
                                                            END OF HEADER       
22 13  3 31 12  0  0.0 0.162851531059D-03 0.102318153950D-11 0.000000000000D+00
    0.105000000000D+03 0.455312500000D+02 0.527807708650D-08 0.165352075564D+01
    0.233575701714D-05 0.637240894139D-02 0.118967145681D-04 0.515365847588D+04
    0.432000000000D+05-0.182539224625D-06 0.590076935461D+00-0.134110450745D-06
    0.925709216967D+00 0.133625000000D+03-0.204134106991D+01-0.833070412654D-08
   -0.335013961017D-09 0.100000000000D+01 0.173400000000D+04 0.000000000000D+00
    0.280000000000D+01 0.000000000000D+00-0.172294676304D-07 0.105000000000D+03
    0.360000000000D+05 0.000000000000D+00 0.000000000000D+00 0.000000000000D+00
23 13  3 31 12  0  0.0 0.997204333544D-04-0.363797880709D-11 0.000000000000D+00
    0.480000000000D+02 0.936250000000D+02 0.471555356459D-08-0.392710714823D+00
    0.476650893688D-05 0.829745945521D-02 0.513531267643D-05 0.515373505974D+04
    0.432000000000D+05 0.117346644402D-06 0.164580567533D+01 0.502914190292D-07
    0.956157494175D+00 0.276812500000D+03-0.291131073374D+01-0.841642200633D-08
    0.396445084958D-10 0.000000000000D+00 0.173400000000D+04 0.000000000000D+00
    0.200000000000D+01 0.000000000000D+00-0.200234353542D-07 0.480000000000D+02
    0.360000000000D+05 0.400000000000D+01 0.000000000000D+00 0.000000000000D+00
24 13  3 31 12  0  0.0-0.364985316992D-05-0.682121026330D-12 0.000000000000D+00
    0.300000000000D+02-0.653125000000D+02 0.465662253845D-08-0.125063224910D+01
   -0.333227217197D-05 0.853717792779D-03 0.286474823952D-05 0.515369266129D+04
    0.432000000000D+05-0.279396772385D-07 0.267259689934D+01-0.614672899246D-07
    0.959220914853D+00 0.325312500000D+03 0.311827090427D+00-0.846070956537D-08
   -0.311798701953D-09 0.100000000000D+01 0.173400000000D+04 0.000000000000D+00
    0.200000000000D+01 0.000000000000D+00 0.325962901115D-08 0.300000000000D+02
    0.360180000000D+05 0.400000000000D+01 0.000000000000D+00 0.000000000000D+00
25 13  3 31 12  0  0.0 0.828774645925D-04 0.352429196937D-11 0.000000000000D+00
    0.440000000000D+02-0.966562500000D+02 0.388873340993D-08 0.313305035016D+01
   -0.489130616188D-05 0.239052518737D-02 0.111740082502D-04 0.515357157707D+04
    0.432000000000D+05 0.484287738800D-07-0.256279819147D+01 0.931322574616D-08
    0.972446779775D+00 0.170125000000D+03 0.571738142594D+00-0.775568019807D-08
    0.165364030933D-09 0.100000000000D+01 0.173400000000D+04 0.000000000000D+00
    0.200000000000D+01 0.000000000000D+00 0.558793544769D-08 0.440000000000D+02
    0.360180000000D+05 0.400000000000D+01 0.000000000000D+00 0.000000000000D+00
26 13  3 31 12  0  0.0-0.454946421087D-04 0.148929757415D-10 0.000000000000D+00
    0.410000000000D+02 0.920937500000D+02 0.443589905871D-08-0.467535650828D+00
    0.509805977344D-05 0.212846974609D-01 0.472739338875D-05 0.515366125870D+04
    0.432000000000D+05-0.931322574615D-07 0.172520932694D+01 0.271946191788D-06
    0.979349416828D+00 0.300468750000D+03 0.122855033748D+01-0.855964225774D-08
    0.150006248362D-09 0.100000000000D+01 0.173400000000D+04 0.000000000000D+00
    0.200000000000D+01 0.000000000000D+00-0.605359673500D-08 0.410000000000D+02
    0.394680000000D+05 0.400000000000D+01 0.000000000000D+00 0.000000000000D+00
27 13  3 31 12  0  0.0-0.180916395038D-03 0.136424205266D-11 0.000000000000D+00
    0.104000000000D+03-0.954687500000D+02 0.506878256371D-08 0.172057486537D+01
   -0.488944351673D-05 0.601816992275D-02 0.104177743196D-04 0.515366496849D+04
    0.432000000000D+05-0.819563865662D-07-0.254644516946D+01-0.353902578354D-07
    0.977279652534D+00 0.188250000000D+03 0.833115660417D+00-0.780246786125D-08
    0.106433004790D-09 0.100000000000D+01 0.173400000000D+04 0.000000000000D+00
    0.200000000000D+01 0.630000000000D+02-0.190921127796D-07 0.104000000000D+03
    0.386700000000D+05 0.400000000000D+01 0.000000000000D+00 0.000000000000D+00
28 13  3 31 12  0  0.0 0.245775561780D-03 0.329691829393D-11 0.000000000000D+00
    0.510000000000D+02-0.730312500000D+02 0.371515475111D-08 0.153884623837D+01
   -0.398419797421D-05 0.186048591277D-01 0.106617808342D-04 0.515364676475D+04
    0.432000000000D+05-0.189989805222D-06-0.250054567877D+01-0.433996319771D-06
    0.982724273748D+00 0.187968750000D+03-0.177388604765D+01-0.772353600199D-08
    0.194650965137D-09 0.000000000000D+00 0.173400000000D+04 0.000000000000D+00
    0.200000000000D+01 0.000000000000D+00-0.107102096081D-07 0.510000000000D+02
    0.360000000000D+05 0.400000000000D+01 0.000000000000D+00 0.000000000000D+00
29 13  3 31 12  0  0.0 0.422008335590D-03 0.363797880709D-11 0.000000000000D+00
    0.730000000000D+02 0.790625000000D+01 0.459519140817D-08-0.265059829944D+01
    0.447034835815D-06 0.197417009622D-02 0.762753188610D-05 0.515366880608D+04
    0.432000000000D+05 0.186264514923D-07-0.146056410217D+01 0.745058059692D-07
    0.965262959625D+00 0.230656250000D+03-0.108091923976D+01-0.801783397497D-08
    0.624311719375D-09 0.100000000000D+01 0.173400000000D+04 0.000000000000D+00
    0.280000000000D+01 0.000000000000D+00-0.977888703346D-08 0.730000000000D+02
    0.360180000000D+05 0.400000000000D+01 0.000000000000D+00 0.000000000000D+00
32 13  3 31 12  0  0.0-0.547142233700D-03-0.261479726760D-11 0.000000000000D+00
    0.670000000000D+02 0.490937500000D+02 0.471233914498D-08-0.149411730012D+01
    0.255368649960D-05 0.115868732100D-01 0.114254653454D-04 0.515373282623D+04
    0.432000000000D+05-0.949949026108D-07 0.672440471193D+00-0.184401869774D-06
    0.949854653533D+00 0.153375000000D+03-0.379584818408D+00-0.813105297671D-08
   -0.109290266664D-09 0.000000000000D+00 0.173400000000D+04 0.000000000000D+00
    0.200000000000D+01 0.000000000000D+00-0.325962901115D-08 0.670000000000D+02
    0.360000000000D+05 0.400000000000D+01 0.000000000000D+00 0.000000000000D+00
22 13  3 31 13 59 44.0 0.162857118994D-03 0.102318153950D-11 0.000000000000D+00
    0.100000000000D+01 0.517812500000D+02 0.516557230968D-08 0.270138175969D+01
    0.260770320892D-05 0.637193012517D-02 0.117681920528D-04 0.515365898895D+04
    0.503840000000D+05 0.409781932831D-07 0.590018083730D+00-0.132247805595D-06
    0.925707736494D+00 0.134000000000D+03-0.204134033114D+01-0.811998108695D-08
   -0.337156901081D-09 0.100000000000D+01 0.173400000000D+04 0.000000000000D+00
    0.200000000000D+01 0.000000000000D+00-0.172294676304D-07 0.100000000000D+01
    0.488460000000D+05 0.400000000000D+01 0.000000000000D+00 0.000000000000D+00
29 13  3 31 13 59 44.0 0.422033946961D-03 0.363797880709D-11 0.000000000000D+00
    0.250000000000D+02 0.118750000000D+02 0.455697553061D-08-0.160286402652D+01
    0.698491930962D-06 0.197460071649D-02 0.802427530289D-05 0.515366802216D+04
    0.503840000000D+05-0.167638063431D-07-0.146062176455D+01 0.726431608200D-07
    0.965267329362D+00 0.228250000000D+03-0.108080249158D+01-0.804890669784D-08
    0.625026034843D-09 0.100000000000D+01 0.173400000000D+04 0.000000000000D+00
    0.200000000000D+01 0.000000000000D+00-0.977888703346D-08 0.250000000000D+02
    0.502500000000D+05 0.400000000000D+01 0.000000000000D+00 0.000000000000D+00
 1 13  3 31 14  0  0.0 0.120429322123D-04 0.329691829393D-11 0.000000000000D+00
    0.170000000000D+02-0.260000000000D+02 0.493627704432D-08-0.379683996940D+00
   -0.132806599140D-05 0.170388910919D-02 0.680424273014D-05 0.515369416618D+04
    0.504000000000D+05 0.353902578354D-07-0.460585941459D+00-0.167638063431D-07
    0.960410981155D+00 0.249125000000D+03 0.326403146813D+00-0.819784147300D-08
   -0.173578658819D-09 0.000000000000D+00 0.173400000000D+04 0.000000000000D+00
    0.200000000000D+01 0.000000000000D+00 0.838190317154D-08 0.170000000000D+02
    0.432000000000D+05 0.400000000000D+01 0.000000000000D+00 0.000000000000D+00
 2 13  3 31 14  0  0.0 0.424967147410D-03 0.193267624127D-11 0.000000000000D+00
    0.900000000000D+02-0.226250000000D+02 0.552273004387D-08 0.438757701299D+00
   -0.117346644402D-05 0.122136903228D-01 0.631622970104D-05 0.515362533951D+04
    0.504000000000D+05 0.204890966415D-07-0.480975991243D+00 0.176951289177D-06
    0.938910659935D+00 0.248375000000D+03-0.263321629157D+01-0.863214527779D-08
   -0.260010830495D-09 0.000000000000D+00 0.173400000000D+04 0.000000000000D+00
    0.200000000000D+01 0.000000000000D+00-0.176951289177D-07 0.900000000000D+02
    0.487200000000D+05 0.400000000000D+01 0.000000000000D+00 0.000000000000D+00
 3 13  3 31 14  0  0.0 0.188017729670D-03 0.500222085975D-11 0.000000000000D+00
    0.100000000000D+02-0.437500000000D+00 0.525986195151D-08 0.609710655136D+00
    0.372529029846D-08 0.160446846858D-01 0.890716910362D-05 0.515368424225D+04
    0.504000000000D+05-0.175088644028D-06-0.165016531749D+01 0.298023223877D-07
    0.933598940440D+00 0.196718750000D+03 0.127724744980D+01-0.865428905731D-08
    0.479662837025D-09 0.100000000000D+01 0.173400000000D+04 0.000000000000D+00
    0.200000000000D+01 0.000000000000D+00-0.465661287308D-08 0.100000000000D+02
    0.432180000000D+05 0.400000000000D+01 0.000000000000D+00 0.000000000000D+00
